start=new Date('2023-05-21T00:00:00.000Z').valueOf();
sats=[{"REF_FRAME":"TEME","MEAN_ANOMALY":"33.4162","REV_AT_EPOCH":"130","SEMIMAJOR_AXIS":"6803.312","RA_OF_ASC_NODE":"141.3893","TIME_SYSTEM":"UTC","LAUNCH_DATE":"2023-04-27","COUNTRY_CODE":"US","APOAPSIS":"425.993","NORAD_CAT_ID":"56360","EPHEMERIS_TYPE":"0","PERIOD":"93.077","OBJECT_ID":"2023-058AV","EPOCH":"2023-05-20T22:00:01.999584","TLE_LINE2":"2 56360  97.6554 141.3893 0001200  90.1611  33.4162 15.47113593  1300","MEAN_ELEMENT_THEORY":"SGP4","CLASSIFICATION_TYPE":"U","MEAN_MOTION_DDOT":"0.0000000000000","TLE_LINE1":"1 56360U 23058AV  23140.91668981  .00049816  00000-0  97989-3 0  9999","BSTAR":"0.00097989000000","ELEMENT_SET_NO":"999","OBJECT_NAME":"STARLINK-5549","SITE":"AFWTR","FILE":"3913175","MEAN_MOTION":"15.47113593","GP_ID":"232213130","DECAY_DATE":null,"CENTER_NAME":"EARTH","RCS_SIZE":"LARGE","ECCENTRICITY":"0.00012000","INCLINATION":"97.6554","MEAN_MOTION_DOT":"0.00049816","ARG_OF_PERICENTER":"90.1611","PERIAPSIS":"424.360","OBJECT_TYPE":"PAYLOAD"},{"OBJECT_TYPE":"PAYLOAD","PERIAPSIS":"424.378","MEAN_MOTION_DOT":"0.00049390","ARG_OF_PERICENTER":"82.0191","GP_ID":"232213241","MEAN_MOTION":"15.47112812","SITE":"AFWTR","FILE":"3913175","ECCENTRICITY":"0.00011780","INCLINATION":"97.6556","DECAY_DATE":null,"RCS_SIZE":"LARGE","CENTER_NAME":"EARTH","ELEMENT_SET_NO":"999","OBJECT_NAME":"STARLINK-5550","CLASSIFICATION_TYPE":"U","MEAN_ELEMENT_THEORY":"SGP4","TLE_LINE1":"1 56361U 23058AW  23140.91668981  .00049390  00000-0  97161-3 0  9999","BSTAR":"0.00097161000000","MEAN_MOTION_DDOT":"0.0000000000000","OBJECT_ID":"2023-058AW","PERIOD":"93.077","EPHEMERIS_TYPE":"0","TLE_LINE2":"2 56361  97.6556 141.3904 0001178  82.0191  43.3333 15.47112812  1306","EPOCH":"2023-05-20T22:00:01.999584","COUNTRY_CODE":"US","NORAD_CAT_ID":"56361","APOAPSIS":"425.980","LAUNCH_DATE":"2023-04-27","MEAN_ANOMALY":"43.3333","REV_AT_EPOCH":"130","SEMIMAJOR_AXIS":"6803.314","REF_FRAME":"TEME","RA_OF_ASC_NODE":"141.3904","TIME_SYSTEM":"UTC"},{"MEAN_MOTION_DOT":"0.00049345","ARG_OF_PERICENTER":"85.8073","PERIAPSIS":"424.358","OBJECT_TYPE":"PAYLOAD","ELEMENT_SET_NO":"999","OBJECT_NAME":"STARLINK-5972","SITE":"AFWTR","FILE":"3912978","MEAN_MOTION":"15.47113823","GP_ID":"232182455","DECAY_DATE":null,"RCS_SIZE":"LARGE","CENTER_NAME":"EARTH","ECCENTRICITY":"0.00012030","INCLINATION":"97.6554","EPHEMERIS_TYPE":"0","PERIOD":"93.077","OBJECT_ID":"2023-058AX","EPOCH":"2023-05-20T22:00:01.999584","TLE_LINE2":"2 56362  97.6554 141.3899 0001203  85.8073  38.9515 15.47113823  3977","MEAN_ELEMENT_THEORY":"SGP4","CLASSIFICATION_TYPE":"U","MEAN_MOTION_DDOT":"0.0000000000000","TLE_LINE1":"1 56362U 23058AX  23140.91668981  .00049345  00000-0  97069-3 0  9997","BSTAR":"0.00097069000000","REF_FRAME":"TEME","MEAN_ANOMALY":"38.9515","SEMIMAJOR_AXIS":"6803.311","REV_AT_EPOCH":"397","RA_OF_ASC_NODE":"141.3899","TIME_SYSTEM":"UTC","LAUNCH_DATE":"2023-04-27","COUNTRY_CODE":"US","APOAPSIS":"425.995","NORAD_CAT_ID":"56362"},{"OBJECT_TYPE":"PAYLOAD","PERIAPSIS":"354.518","ARG_OF_PERICENTER":"276.5122","MEAN_MOTION_DOT":"-0.00076300","ECCENTRICITY":"0.00016300","INCLINATION":"43.0002","CENTER_NAME":"EARTH","RCS_SIZE":"MEDIUM","DECAY_DATE":null,"MEAN_MOTION":"15.71148353","GP_ID":"232213311","FILE":"3913175","SITE":"AFETR","OBJECT_NAME":"STARLINK-6156","ELEMENT_SET_NO":"999","TLE_LINE1":"1 56374U 23061A   23140.90991381 -.00076300  00000-0 -58886-3 0  9993","BSTAR":"-0.00058886000000","MEAN_MOTION_DDOT":"0.0000000000000","CLASSIFICATION_TYPE":"U","MEAN_ELEMENT_THEORY":"SGP4","TLE_LINE2":"2 56374  43.0002  11.3999 0001630 276.5122  83.5561 15.71148353  3721","EPOCH":"2023-05-20T21:50:16.553184","OBJECT_ID":"2023-061A","PERIOD":"91.653","EPHEMERIS_TYPE":"0","APOAPSIS":"356.713","NORAD_CAT_ID":"56374","COUNTRY_CODE":"US","LAUNCH_DATE":"2023-05-04","TIME_SYSTEM":"UTC","RA_OF_ASC_NODE":"11.3999","SEMIMAJOR_AXIS":"6733.751","REV_AT_EPOCH":"372","MEAN_ANOMALY":"83.5561","REF_FRAME":"TEME"},{"CLASSIFICATION_TYPE":"U","MEAN_ELEMENT_THEORY":"SGP4","MEAN_MOTION_DDOT":"0.0000000000000","TLE_LINE1":"1 56375U 23061B   23140.90970798 -.00054942  00000-0 -42150-3 0  9998","BSTAR":"-0.00042150000000","PERIOD":"91.651","OBJECT_ID":"2023-061B","EPHEMERIS_TYPE":"0","TLE_LINE2":"2 56375  43.0007  11.3982 0001921 267.0624  93.0024 15.71173592  2625","EPOCH":"2023-05-20T21:49:58.769472","COUNTRY_CODE":"US","APOAPSIS":"356.837","NORAD_CAT_ID":"56375","LAUNCH_DATE":"2023-05-04","MEAN_ANOMALY":"93.0024","REV_AT_EPOCH":"262","SEMIMAJOR_AXIS":"6733.679","REF_FRAME":"TEME","RA_OF_ASC_NODE":"11.3982","TIME_SYSTEM":"UTC","OBJECT_TYPE":"PAYLOAD","PERIAPSIS":"354.250","MEAN_MOTION_DOT":"-0.00054942","ARG_OF_PERICENTER":"267.0624","GP_ID":"232213190","MEAN_MOTION":"15.71173592","SITE":"AFETR","FILE":"3913175","INCLINATION":"43.0007","ECCENTRICITY":"0.00019210","DECAY_DATE":null,"CENTER_NAME":"EARTH","RCS_SIZE":"MEDIUM","ELEMENT_SET_NO":"999","OBJECT_NAME":"STARLINK-6158"},{"CLASSIFICATION_TYPE":"U","MEAN_ELEMENT_THEORY":"SGP4","MEAN_MOTION_DDOT":"0.0000000000000","TLE_LINE1":"1 56376U 23061C   23140.90980856 -.00077576  00000-0 -59892-3 0  9994","BSTAR":"-0.00059892000000","OBJECT_ID":"2023-061C","PERIOD":"91.653","EPHEMERIS_TYPE":"0","TLE_LINE2":"2 56376  43.0000  11.3985 0001514 269.4009  90.6685 15.71146092  2624","EPOCH":"2023-05-20T21:50:07.459584","NORAD_CAT_ID":"56376","APOAPSIS":"356.642","COUNTRY_CODE":"US","LAUNCH_DATE":"2023-05-04","REV_AT_EPOCH":"262","SEMIMAJOR_AXIS":"6733.757","MEAN_ANOMALY":"90.6685","REF_FRAME":"TEME","TIME_SYSTEM":"UTC","RA_OF_ASC_NODE":"11.3985","OBJECT_TYPE":"PAYLOAD","PERIAPSIS":"354.603","MEAN_MOTION_DOT":"-0.00077576","ARG_OF_PERICENTER":"269.4009","GP_ID":"232213132","MEAN_MOTION":"15.71146092","FILE":"3913175","SITE":"AFETR","ECCENTRICITY":"0.00015140","INCLINATION":"43.0000","CENTER_NAME":"EARTH","RCS_SIZE":"MEDIUM","DECAY_DATE":null,"ELEMENT_SET_NO":"999","OBJECT_NAME":"STARLINK-6188"},{"OBJECT_TYPE":"PAYLOAD","PERIAPSIS":"354.167","ARG_OF_PERICENTER":"270.4547","MEAN_MOTION_DOT":"-0.00038856","INCLINATION":"42.9998","ECCENTRICITY":"0.00019930","RCS_SIZE":"MEDIUM","CENTER_NAME":"EARTH","DECAY_DATE":null,"MEAN_MOTION":"15.71185729","GP_ID":"232213243","FILE":"3913175","SITE":"AFETR","OBJECT_NAME":"STARLINK-6189","ELEMENT_SET_NO":"999","BSTAR":"-0.00029634000000","TLE_LINE1":"1 56377U 23061D   23140.90961834 -.00038856  00000-0 -29634-3 0  9999","MEAN_MOTION_DDOT":"0.0000000000000","CLASSIFICATION_TYPE":"U","MEAN_ELEMENT_THEORY":"SGP4","TLE_LINE2":"2 56377  42.9998  11.3978 0001993 270.4547  89.6092 15.71185729  2621","EPOCH":"2023-05-20T21:49:51.024576","OBJECT_ID":"2023-061D","PERIOD":"91.651","EPHEMERIS_TYPE":"0","NORAD_CAT_ID":"56377","APOAPSIS":"356.851","COUNTRY_CODE":"US","LAUNCH_DATE":"2023-05-04","TIME_SYSTEM":"UTC","RA_OF_ASC_NODE":"11.3978","SEMIMAJOR_AXIS":"6733.644","REV_AT_EPOCH":"262","MEAN_ANOMALY":"89.6092","REF_FRAME":"TEME"},{"TLE_LINE1":"1 56378U 23061E   23140.90917412 -.00051216  00000-0 -39227-3 0  9997","BSTAR":"-0.00039227000000","MEAN_MOTION_DDOT":"0.0000000000000","MEAN_ELEMENT_THEORY":"SGP4","CLASSIFICATION_TYPE":"U","EPOCH":"2023-05-20T21:49:12.643968","TLE_LINE2":"2 56378  43.0009  11.3942 0001356 271.3518  88.7195 15.71189560  2620","EPHEMERIS_TYPE":"0","OBJECT_ID":"2023-061E","PERIOD":"91.650","LAUNCH_DATE":"2023-05-04","COUNTRY_CODE":"US","APOAPSIS":"356.411","NORAD_CAT_ID":"56378","RA_OF_ASC_NODE":"11.3942","TIME_SYSTEM":"UTC","REF_FRAME":"TEME","MEAN_ANOMALY":"88.7195","SEMIMAJOR_AXIS":"6733.633","REV_AT_EPOCH":"262","OBJECT_TYPE":"PAYLOAD","PERIAPSIS":"354.585","ARG_OF_PERICENTER":"271.3518","MEAN_MOTION_DOT":"-0.00051216","DECAY_DATE":null,"RCS_SIZE":"MEDIUM","CENTER_NAME":"EARTH","ECCENTRICITY":"0.00013560","INCLINATION":"43.0009","SITE":"AFETR","FILE":"3913175","MEAN_MOTION":"15.71189560","GP_ID":"232213079","OBJECT_NAME":"STARLINK-6191","ELEMENT_SET_NO":"999"},{"MEAN_MOTION":"15.71166868","GP_ID":"232213424","FILE":"3913175","SITE":"AFETR","INCLINATION":"42.9999","ECCENTRICITY":"0.00020120","RCS_SIZE":"MEDIUM","CENTER_NAME":"EARTH","DECAY_DATE":null,"ELEMENT_SET_NO":"999","OBJECT_NAME":"STARLINK-6157","OBJECT_TYPE":"PAYLOAD","PERIAPSIS":"354.208","MEAN_MOTION_DOT":"-0.00069404","ARG_OF_PERICENTER":"267.8309","APOAPSIS":"356.918","NORAD_CAT_ID":"56379","COUNTRY_CODE":"US","LAUNCH_DATE":"2023-05-04","REV_AT_EPOCH":"372","SEMIMAJOR_AXIS":"6733.698","MEAN_ANOMALY":"92.2328","REF_FRAME":"TEME","TIME_SYSTEM":"UTC","RA_OF_ASC_NODE":"11.3965","CLASSIFICATION_TYPE":"U","MEAN_ELEMENT_THEORY":"SGP4","TLE_LINE1":"1 56379U 23061F   23140.90948717 -.00069404  00000-0 -53443-3 0  9994","MEAN_MOTION_DDOT":"0.0000000000000","BSTAR":"-0.00053443000000","PERIOD":"91.652","OBJECT_ID":"2023-061F","EPHEMERIS_TYPE":"0","TLE_LINE2":"2 56379  42.9999  11.3965 0002012 267.8309  92.2328 15.71166868  3726","EPOCH":"2023-05-20T21:49:39.691488"},{"OBJECT_TYPE":"PAYLOAD","PERIAPSIS":"354.283","MEAN_MOTION_DOT":"-0.00057692","ARG_OF_PERICENTER":"266.5244","FILE":"3913175","SITE":"AFETR","GP_ID":"232213366","MEAN_MOTION":"15.71167539","RCS_SIZE":"MEDIUM","CENTER_NAME":"EARTH","DECAY_DATE":null,"INCLINATION":"42.9997","ECCENTRICITY":"0.00018980","ELEMENT_SET_NO":"999","OBJECT_NAME":"STARLINK-6161","MEAN_ELEMENT_THEORY":"SGP4","CLASSIFICATION_TYPE":"U","TLE_LINE1":"1 56380U 23061G   23140.90928827 -.00057692  00000-0 -44303-3 0  9997","MEAN_MOTION_DDOT":"0.0000000000000","BSTAR":"-0.00044303000000","EPHEMERIS_TYPE":"0","PERIOD":"91.652","OBJECT_ID":"2023-061G","EPOCH":"2023-05-20T21:49:22.506528","TLE_LINE2":"2 56380  42.9997  11.3957 0001898 266.5244  93.5407 15.71167539  2628","LAUNCH_DATE":"2023-05-04","NORAD_CAT_ID":"56380","APOAPSIS":"356.839","COUNTRY_CODE":"US","REF_FRAME":"TEME","REV_AT_EPOCH":"262","SEMIMAJOR_AXIS":"6733.696","MEAN_ANOMALY":"93.5407","TIME_SYSTEM":"UTC","RA_OF_ASC_NODE":"11.3957"}];
